0 NOAA 9
1 15427U 84123A   26158.30842458  .00000115  00000-0  80488-4 0  9992
2 15427  99.0991 184.7169 0014962  22.0908 348.6304 14.17065691142024
0 OSCAR 11 (UOSAT 2)
1 14781U 84021B   26158.15325762  .00001194  00000-0  12717-3 0  9995
2 14781  97.8052 123.8404 0006728 206.8007 153.2864 14.90758666255634
OSCAR-7
1 07530U 74089B   26157.94104381 -.00000046  00000-0  45809-5 0  9996
2 07530 101.9901 171.0806 0012469 149.2351 327.1489 12.53697893359237
0 OSCAR 19 (LUSAT)
1 20442U 90005G   26157.57710783  .00000130  00000-0  63146-4 0  9993
2 20442  98.8853 179.0901 0010613 234.2040 125.8157 14.34119987900878
0 OPS 6582 (TRANSIT 5B-5)
1 00965U 64083D   26157.86745928  .00000046  00000-0  51665-4 0  9998
2 00965  90.0768 202.9571 0039872 309.9386 224.1537 13.57011826 42212
0 OSCAR 10
1 14129U 83058B   26156.71565058 -.00000155  00000-0  00000-0 0  9990
2 14129  25.9038 221.4654 6014762 112.5116 319.5552  2.05872928295259
0 LES 1
1 01002U 65008C   26158.02752174  .00000006  00000-0 -38743-3 0  9997
2 01002  32.1450  68.7697 0015612 234.1232 125.7815  9.88354968215181
0 SOLRAD 7B
1 01291U 65016D   26158.00106823  .00000018  00000-0  52068-4 0  9997
2 01291  70.0797 257.9185 0019325 139.8747 220.3790 13.94974530115286
0 ALOUETTE 2
1 01804U 65098A   26158.06398257  .00000452  00000-0  15053-3 0  9991
2 01804  79.8016 285.2695 1329714 253.0748  92.0685 12.28334954678034
0 OV3-3
1 02389U 66070A   26158.24528431  .00015169  00000-0  68036-3 0  9990
2 02389  81.3259 339.7833 1012995 183.4511 175.9267 13.45062311597631
0 ERS 15
1 02412U 66077C   26150.28389959  .00000002  00000-0  00000-0 0  9994
2 02412  90.3351 277.0217 0007312  86.0359 274.1328  8.59079282388929
0 ISIS 1
1 03669U 69009A   26158.19019361  .00000084  00000-0  62817-4 0  9990
2 03669  88.4419 145.4983 1705978 268.4331  72.1567 11.30432534358648
0 OPS 7613 (P/L 4)
1 04237U 69082E   26158.19829029  .00000066  00000-0  86369-4 0  9991
2 04237  70.0133 125.2291 0019020 149.8508 221.8226 13.95994900884913
0 OPS 7613 (P/L 1)
1 04256U 69082B   26158.22810500  .00000100  00000-0  10535-3 0  9990
2 04256  70.0102 346.4099 0017135  76.6603 283.6413 13.99195101889077
0 SHINSEI (MS-F2)
1 05485U 71080A   26158.29403641  .00000054  00000-0  65557-4 0  9990
2 05485  32.0534 145.9381 0639747 333.6496  23.2849 12.74251832547999
0 OPS 7898 (P/L 2)
1 05680U 71110C   26157.32929292 -.00000010  00000-0  42529-4 0  9996
2 05680  69.9907  25.3287 0008453 200.4881 159.5875 13.74757920346728
0 EUTE 1-F4 (ECS 4)
1 18351U 87078B   26158.20456997 -.00000163  00000-0  00000-0 0  9993
2 18351  13.8356 342.1982 0011217  42.7496 312.4207  0.98690668126650
0 PROSPERO (BLACK ARROW)
1 05580U 71093A   26157.66175372  .00001154  00000-0  24689-3 0  9999
2 05580  82.0383 300.0695 0500132 257.2898  97.1943 14.01586999747057
0 SECOR 4 (EGRS 4)
1 01315U 65027B   26157.88346130 -.00000049  00000-0 -20533-3 0  9995
2 01315  90.2503  15.3454 0029824 225.1384 196.2401 12.92667654885599
0 GEOSAT
1 15595U 85021A   26158.00661123  .00000114  00000-0  79199-4 0  9997
2 15595 108.0435  60.2625 0001273 281.2432  78.8567 14.39961520161306
0 HILAT
1 14154U 83063A   26158.28404694  .00000402  00000-0  12504-3 0  9995
2 14154  82.0232 170.2333 0038371 322.4669  48.0481 14.38705338246163
0 NOAA 2 (ITOS-D)
1 06235U 72082A   26158.29295512 -.00000038  00000-0  53248-4 0  9990
2 06235 102.0075 176.7560 0004111 183.1548 188.3845 12.53214666453715
0 IRS 1B
1 21688U 91061A   26158.30313431  .00000304  00000-0  24708-3 0  9993
2 21688  99.4107 166.0029 0024989  32.4857 338.4442 13.97871714667119
0 ATS 5
1 04068U 69069A   26158.23654936 -.00000162  00000-0  00000-0 0  9998
2 04068   0.2453 157.3209 0005302 122.5686 230.2280  0.99497404 46239
0 TIROS N
1 11060U 78096A   26157.63457131  .00000110  00000-0  72102-4 0  9997
2 11060  98.4533 179.1654 0009103 273.6901  86.3235 14.19372153677256
0 TIROS 10
1 01430U 65051A   26158.04868200  .00000199  00000-0  73312-4 0  9994
2 01430  98.5028 277.4245 0056438 109.1574 251.5736 14.41627220194457
0 SECOR 7 (EGRS 7)
1 02411U 66077B   26151.80828715 -.00000017  00000-0 -94661-2 0  9996
2 02411  90.3353 277.2466 0011654  75.1080 285.1061  8.59615314875976
0 SECOR 13 (EGRS 13)
1 03891U 69037B   26157.59057539 -.00000034  00000-0  15363-4 0  9990
2 03891  99.6501  29.5368 0038691 277.6587 145.9441 13.42976651800331
0 OSCAR 16 (PACSAT)
1 20439U 90005D   26157.86965299  .00000125  00000-0  61507-4 0  9998
2 20439  98.8526 193.3067 0009463 261.0341 279.6915 14.33933427900452
0 COSMOS 2197
1 22034U 92042A   26157.96554396  .00000013  00000-0  10598-4 0  9997
2 22034  82.5946 235.4640 0011442 299.4890 234.0106 12.64251900563992
