OBJECT_NAME,OBJECT_ID,EPOCH,MEAN_MOTION,ECCENTRICITY,INCLINATION,RA_OF_ASC_NODE,ARG_OF_PERICENTER,MEAN_ANOMALY,EPHEMERIS_TYPE,CLASSIFICATION_TYPE,NORAD_CAT_ID,ELEMENT_SET_NO,REV_AT_EPOCH,BSTAR,MEAN_MOTION_DOT,MEAN_MOTION_DDOT
OPS 6582 (TRANSIT 5B-5),1964-083D,2026-06-06T20:49:08.481792,13.57011826,.00398724,90.0768,202.9571,309.9386,224.1537,0,U,965,999,4221,.5166521E-4,.46E-6,0
LES-1,1965-008C,2026-06-07T00:39:37.878336,9.88354968,.00156116,32.1450,68.7697,234.1232,125.7815,0,U,1002,999,21518,-.3874287E-3,.6E-7,0
SOLRAD 7B,1965-016D,2026-06-07T00:01:32.295072,13.94974530,.00193247,70.0797,257.9185,139.8747,220.3790,0,U,1291,999,11528,.52068358E-4,.18E-6,0
SECOR 4 (EGRS 4),1965-027B,2026-06-06T21:12:11.056320,12.92667654,.00298245,90.2503,15.3454,225.1384,196.2401,0,U,1315,999,88559,-.20532912E-3,-.49E-6,0
TIROS 10,1965-051A,2026-06-07T01:10:06.124800,14.41627220,.00564378,98.5028,277.4245,109.1574,251.5736,0,U,1430,999,19445,.73312271E-4,.199E-5,0
ALOUETTE 2,1965-098A,2026-06-07T01:32:08.094048,12.28334954,.13297137,79.8016,285.2695,253.0748,92.0685,0,U,1804,999,67803,.15053423E-3,.452E-5,0
OV3-3,1966-070A,2026-06-07T05:53:12.564384,13.45062311,.1012995,81.3259,339.7833,183.4511,175.9267,0,U,2389,999,59763,.68035677E-3,.15169E-3,0
SECOR 7 (EGRS 7),1966-077B,2026-05-31T19:23:56.009760,8.59615314,.0011654,90.3353,277.2466,75.1080,285.1061,0,U,2411,999,87597,-.94660848E-2,-.17E-6,0
ERS 15,1966-077C,2026-05-30T06:48:48.924576,8.59079282,.00073123,90.3351,277.0217,86.0359,274.1328,0,U,2412,999,38892,0,.2E-7,0
ISIS 1,1969-009A,2026-06-07T04:33:52.727904,11.30432534,.17059775,88.4419,145.4983,268.4331,72.1567,0,U,3669,999,35864,.62817293E-4,.84E-6,0
SECOR 13 (EGRS 13),1969-037B,2026-06-06T14:10:25.713696,13.42976651,.00386905,99.6501,29.5368,277.6587,145.9441,0,U,3891,999,80033,.15362818E-4,-.34E-6,0
ATS 5,1969-069A,2026-06-07T05:40:37.864704,0.99497404,.00053021,0.2453,157.3209,122.5686,230.2280,0,U,4068,999,4623,0,-.162E-5,0
OPS 7613 (P/L 4),1969-082E,2026-06-07T04:45:32.281056,13.95994900,.00190197,70.0133,125.2291,149.8508,221.8226,0,U,4237,999,88491,.86369166E-4,.66E-6,0
OPS 7613 (P/L 1),1969-082B,2026-06-07T05:28:28.272000,13.99195101,.00171347,70.0102,346.4099,76.6603,283.6413,0,U,4256,999,88907,.10535394E-3,.1E-5,0
SHINSEI (MS-F2),1971-080A,2026-06-07T07:03:24.745824,12.74251832,.06397466,32.0534,145.9381,333.6496,23.2849,0,U,5485,999,54799,.65556776E-4,.54E-6,0
PROSPERO (BLACK ARROW),1971-093A,2026-06-06T15:52:55.521408,14.01586999,.05001316,82.0383,300.0695,257.2898,97.1943,0,U,5580,999,74705,.24689131E-3,.1154E-4,0
OPS 7898 (P/L 2),1971-110C,2026-06-06T07:54:10.908288,13.74757920,.00084531,69.9907,25.3287,200.4881,159.5875,0,U,5680,999,34672,.42529409E-4,-.1E-6,0
NOAA 2 (ITOS-D),1972-082A,2026-06-07T07:01:51.322368,12.53214666,.00041109,102.0075,176.7560,183.1548,188.3845,0,U,6235,999,45371,.53247836E-4,-.38E-6,0
OSCAR 7 (AO-7),1974-089B,2026-06-06T22:35:06.185184,12.53697893,.00124686,101.9901,171.0806,149.2351,327.1489,0,U,7530,999,35923,.4580919E-5,-.46E-6,0
TIROS N,1978-096A,2026-06-06T15:13:46.961184,14.19372153,.00091032,98.4533,179.1654,273.6901,86.3235,0,U,11060,999,67725,.72101541E-4,.11E-5,0
PHASE 3B (AO-10),1983-058B,2026-06-05T17:10:32.210112,2.05872928,.60147622,25.9038,221.4654,112.5116,319.5552,0,U,14129,999,29525,0,-.155E-5,0
HILAT,1983-063A,2026-06-07T06:49:01.655616,14.38705338,.00383708,82.0232,170.2333,322.4669,48.0481,0,U,14154,999,24616,.12503707E-3,.402E-5,0
UOSAT 2 (UO-11),1984-021B,2026-06-07T03:40:41.458368,14.90758666,.00067285,97.8052,123.8404,206.8007,153.2864,0,U,14781,999,25563,.12717207E-3,.1194E-4,0
NOAA 9,1984-123A,2026-06-07T07:24:07.883712,14.17065691,.0014962,99.0991,184.7169,22.0908,348.6304,0,U,15427,999,14202,.80488332E-4,.115E-5,0
GEOSAT,1985-021A,2026-06-07T00:09:31.210272,14.39961520,.00012733,108.0435,60.2625,281.2432,78.8567,0,U,15595,999,16130,.79199189E-4,.114E-5,0
EUTELSAT 1-F4 (ECS 4),1987-078B,2026-06-07T04:54:34.845408,0.98690668,.00112167,13.8356,342.1982,42.7496,312.4207,0,U,18351,999,12665,0,-.163E-5,0
PACSAT (AO-16),1990-005D,2026-06-06T20:52:18.018336,14.33933427,.00094628,98.8526,193.3067,261.0341,279.6915,0,U,20439,999,90045,.61507232E-4,.125E-5,0
LUSAT (LO-19),1990-005G,2026-06-06T13:51:02.116512,14.34119987,.00106129,98.8853,179.0901,234.2040,125.8157,0,U,20442,999,90087,.63145958E-4,.13E-5,0
IRS-1B,1991-061A,2026-06-07T07:16:30.804384,13.97871714,.00249888,99.4107,166.0029,32.4857,338.4442,0,U,21688,999,66711,.24707532E-3,.304E-5,0
COSMOS 2197,1992-042A,2026-06-06T23:10:22.998144,12.64251900,.00114417,82.5946,235.4640,299.4890,234.0106,0,U,22034,999,56399,.10597558E-4,.13E-6,0
